[{"OBJECT_NAME":"TIANQI-18","OBJECT_ID":"2025-105C","EPOCH":"2026-03-09T22:12:26.656128","MEAN_MOTION":13.99097587,"ECCENTRICITY":0.00119546,"INCLINATION":44.984,"RA_OF_ASC_NODE":103.8187,"ARG_OF_PERICENTER":278.1183,"MEAN_ANOMALY":81.8293,"EPHEMERIS_TYPE":0,"CLASSIFICATION_TYPE":"U","NORAD_CAT_ID":64060,"ELEMENT_SET_NO":999,"REV_AT_EPOCH":4129,"BSTAR":0.00015710679,"MEAN_MOTION_DOT":1.01e-6,"MEAN_MOTION_DDOT":0},{"OBJECT_NAME":"CZ-6A DEB","OBJECT_ID":"2024-140ADQ","EPOCH":"2026-03-09T01:08:42.752256","MEAN_MOTION":14.14395962,"ECCENTRICITY":0.00713991,"INCLINATION":89.0227,"RA_OF_ASC_NODE":288.3998,"ARG_OF_PERICENTER":161.1155,"MEAN_ANOMALY":199.2706,"EPHEMERIS_TYPE":0,"CLASSIFICATION_TYPE":"U","NORAD_CAT_ID":63393,"ELEMENT_SET_NO":999,"REV_AT_EPOCH":8145,"BSTAR":0.00041830202,"MEAN_MOTION_DOT":8.34e-6,"MEAN_MOTION_DDOT":0}]
